NORAD_CAT_ID,OBJECT_NAME,OBJECT_TYPE,EPOCH,MEAN_MOTION,ECCENTRICITY,INCLINATION,RA_OF_ASC_NODE,ARG_OF_PERICENTER,MEAN_ANOMALY,BSTAR,MEAN_MOTION_DOT,MEAN_MOTION_DDOT,TLE_LINE0,TLE_LINE1,TLE_LINE2,SEMIMAJOR_AXIS,PERIOD,APOGEE,PERIGEE,DECAYED
55633.0,STARLINK-5498,PAYLOAD,2024-05-04 02:43:56,14.98327097,0.0003352,69.9988,105.2882,269.438,90.6395,-7.2923e-05,-9.63e-06,0.0,0 STARLINK-5498,1 55633U 23021F   24125.11385261 -.00000963  00000-0 -72923-4 0  9998,2 55633  69.9988 105.2882 0003352 269.4380  90.6395 14.98327097 66952,6950.202,96.107,574.397,569.737,0.0
55633.0,STARLINK-5498,PAYLOAD,2024-05-05 04:22:05,14.98332481,0.0003309,69.9989,102.5951,269.4766,90.6013,3.5044e-05,3.25e-06,0.0,0 STARLINK-5498,1 55633U 23021F   24126.18200697  .00000325  00000-0  35044-4 0  9998,2 55633  69.9989 102.5951 0003309 269.4766  90.6013 14.98332481 67119,6950.185,96.107,574.35,569.75,0.0
55633.0,STARLINK-5498,PAYLOAD,2024-05-05 07:34:21,14.98333494,0.000329,69.999,102.2584,269.9623,90.1159,4.6835e-05,4.66e-06,0.0,0 STARLINK-5498,1 55633U 23021F   24126.31552587  .00000466  00000-0  46835-4 0  9997,2 55633  69.9990 102.2584 0003290 269.9623  90.1159 14.98333494 67432,6950.182,96.107,574.334,569.76,0.0
55633.0,STARLINK-5498,PAYLOAD,2024-05-06 04:24:06,14.98331429,0.0003309,69.9988,100.0697,269.4418,90.6362,9.0948e-05,9.92e-06,0.0,0 STARLINK-5498,1 55633U 23021F   24127.18340541  .00000992  00000-0  90948-4 0  9996,2 55633  69.9988 100.0697 0003309 269.4418  90.6362 14.98331429 67266,6950.188,96.107,574.353,569.754,0.0
55633.0,STARLINK-5498,PAYLOAD,2024-05-06 07:36:22,14.98333475,0.0003275,69.9989,99.7331,269.8191,90.2592,0.00011259,1.251e-05,0.0,0 STARLINK-5498,1 55633U 23021F   24127.31692344  .00001251  00000-0  11259-3 0  9998,2 55633  69.9989  99.7331 0003275 269.8191  90.2592 14.98333475 67589,6950.182,96.107,574.323,569.771,0.0
55633.0,STARLINK-5498,PAYLOAD,2024-05-06 15:37:02,14.98334067,0.0003265,69.9989,98.8914,269.6922,90.3863,7.9837e-05,8.6e-06,0.0,0 STARLINK-5498,1 55633U 23021F   24127.65072333  .00000860  00000-0  79837-4 0  9997,2 55633  69.9989  98.8914 0003265 269.6922  90.3863 14.98334067 67631,6950.18,96.107,574.315,569.776,0.0
55633.0,STARLINK-5498,PAYLOAD,2024-05-07 04:26:07,14.98334373,0.0003206,69.999,97.5449,269.4007,90.6785,1.8685e-05,1.3e-06,0.0,0 STARLINK-5498,1 55633U 23021F   24128.18480370  .00000130  00000-0  18685-4 0  9994,2 55633  69.9990  97.5449 0003206 269.4007  90.6785 14.98334373 67411,6950.179,96.107,574.273,569.816,0.0
55633.0,STARLINK-5498,PAYLOAD,2024-05-07 07:38:22,14.98336268,0.0003183,69.9991,97.2085,269.7184,90.3611,3.9507e-05,3.78e-06,0.0,0 STARLINK-5498,1 55633U 23021F   24128.31832152  .00000378  00000-0  39507-4 0  9998,2 55633  69.9991  97.2085 0003183 269.7184  90.3611 14.98336268 67733,6950.174,96.107,574.251,569.826,0.0
55633.0,STARLINK-5498,PAYLOAD,2024-05-07 15:39:03,14.98323339,0.0003108,69.9991,96.3661,269.3598,90.7205,0.00011045,1.225e-05,0.0,0 STARLINK-5498,1 55633U 23021F   24128.65212754  .00001225  00000-0  11045-3 0  9993,2 55633  69.9991  96.3661 0003108 269.3598  90.7205 14.98323339 67485,6950.213,96.107,574.239,569.918,0.0
55633.0,STARLINK-5498,PAYLOAD,2024-05-07 22:03:36,14.98329308,0.0003131,69.999,95.6929,269.2103,90.8697,-5.7229e-05,-7.76e-06,0.0,0 STARLINK-5498,1 55633U 23021F   24128.91916743 -.00000776  00000-0 -57229-4 0  9998,2 55633  69.9990  95.6929 0003131 269.2103  90.8697 14.98329308 67826,6950.195,96.107,574.236,569.884,0.0
55633.0,STARLINK-5498,PAYLOAD,2024-05-08 07:40:24,14.98331207,0.0003151,69.9991,94.6837,270.3619,89.7179,-3.0143e-05,-4.53e-06,0.0,0 STARLINK-5498,1 55633U 23021F   24129.31972570 -.00000453  00000-0 -30143-4 0  9991,2 55633  69.9991  94.6837 0003151 270.3619  89.7179 14.98331207 67880,6950.189,96.107,574.244,569.864,0.0
55633.0,STARLINK-5498,PAYLOAD,2024-05-08 22:05:36,14.98331482,0.0003117,69.9992,93.1687,270.4783,89.6019,1.5571e-05,9.3e-07,0.0,0 STARLINK-5498,1 55633U 23021F   24129.92056357  .00000093  00000-0  15571-4 0  9990,2 55633  69.9992  93.1687 0003117 270.4783  89.6019 14.98331482 67970,6950.188,96.107,574.22,569.887,0.0
55633.0,STARLINK-5498,PAYLOAD,2024-05-09 04:30:08,14.98335811,0.0003125,69.9993,92.4954,270.4741,89.606,4.4829e-05,4.42e-06,0.0,0 STARLINK-5498,1 55633U 23021F   24130.18759993  .00000442  00000-0  44829-4 0  9992,2 55633  69.9993  92.4954 0003125 270.4741  89.6060 14.98335811 67711,6950.175,96.107,574.212,569.868,0.0
55633.0,STARLINK-5498,PAYLOAD,2024-05-09 07:42:24,14.98337765,0.0003099,69.9994,92.1587,270.4632,89.6172,6.6559e-05,7.01e-06,0.0,0 STARLINK-5498,1 55633U 23021F   24130.32111765  .00000701  00000-0  66559-4 0  9999,2 55633  69.9994  92.1587 0003099 270.4632  89.6172 14.98337765 68030,6950.169,96.107,574.188,569.88,0.0
55633.0,STARLINK-5498,PAYLOAD,2024-05-09 22:07:38,14.9832471,0.0002968,70.0,90.6436,271.9739,88.108,6.757e-06,-1.2e-07,0.0,0 STARLINK-5498,1 55633U 23021F   24130.92196782 -.00000012  00000-0  67570-5 0  9998,2 55633  70.0000  90.6436 0002968 271.9739  88.1080 14.98324710 68123,6950.209,96.107,574.137,570.011,0.0
55633.0,STARLINK-5498,PAYLOAD,2024-05-10 04:32:09,14.98327703,0.0003006,70.0002,89.9718,268.7098,91.3717,8.0746e-05,8.71e-06,0.0,0 STARLINK-5498,1 55633U 23021F   24131.18900444  .00000871  00000-0  80746-4 0  9996,2 55633  70.0002  89.9718 0003006 268.7098  91.3717 14.98327703 67863,6950.2,96.107,574.154,569.976,0.0
55633.0,STARLINK-5498,PAYLOAD,2024-05-10 14:08:58,14.9832853,0.0002803,70.0001,88.9606,270.4002,89.6836,6.59e-06,-1.4e-07,0.0,0 STARLINK-5498,1 55633U 23021F   24131.58956651 -.00000014  00000-0  65900-5 0  9997,2 55633  70.0001  88.9606 0002803 270.4002  89.6836 14.98328530 68228,6950.197,96.107,574.011,570.114,0.0
55633.0,STARLINK-5498,PAYLOAD,2024-05-10 22:09:38,14.98330745,0.0002711,70.0002,88.1189,266.7473,93.3376,2.5994e-05,2.17e-06,0.0,0 STARLINK-5498,1 55633U 23021F   24131.92336442  .00000217  00000-0  25994-4 0  9997,2 55633  70.0002  88.1189 0002711 266.7473  93.3376 14.98330745 68272,6950.191,96.107,573.94,570.171,0.0
55633.0,STARLINK-5498,PAYLOAD,2024-05-11 04:34:10,14.98339611,0.0002359,70.0007,87.4461,270.551,89.5378,0.00013595,1.53e-05,0.0,0 STARLINK-5498,1 55633U 23021F   24132.19039672  .00001530  00000-0  13595-3 0  9994,2 55633  70.0007  87.4461 0002359 270.5510  89.5378 14.98339611 68017,6950.163,96.106,573.668,570.389,0.0
55633.0,STARLINK-5498,PAYLOAD,2024-05-11 06:10:16,14.98357692,0.0002505,70.0005,87.2786,264.3375,95.7499,0.00026498,3.072e-05,0.0,0 STARLINK-5498,1 55633U 23021F   24132.25714080  .00003072  00000-0  26498-3 0  9993,2 55633  70.0005  87.2786 0002505 264.3375  95.7499 14.98357692 68029,6950.107,96.105,573.713,570.231,0.0
55633.0,STARLINK-5498,PAYLOAD,2024-05-11 22:11:37,14.98350231,0.0002831,70.0001,85.5943,244.0865,116.0002,0.0002693,3.123e-05,0.0,0 STARLINK-5498,1 55633U 23021F   24132.92473391  .00003123  00000-0  26930-3 0  9992,2 55633  70.0001  85.5943 0002831 244.0865 116.0002 14.98350231 68425,6950.13,96.106,573.963,570.028,0.0
55633.0,STARLINK-5498,PAYLOAD,2024-05-12 04:36:16,14.98268774,0.0002862,69.9997,84.9214,265.608,94.4752,-0.00070012,-8.423e-05,0.0,0 STARLINK-5498,1 55633U 23021F   24133.19185197 -.00008423  00000-0 -70012-3 0  9996,2 55633  69.9997  84.9214 0002862 265.6080  94.4752 14.98268774 68164,6950.382,96.111,574.236,570.258,0.0
55633.0,STARLINK-5498,PAYLOAD,2024-05-12 06:12:24,14.98268656,0.0002947,69.9996,84.753,266.7297,93.3525,-0.00069704,-8.387e-05,0.0,0 STARLINK-5498,1 55633U 23021F   24133.25861397 -.00008387  00000-0 -69704-3 0  9991,2 55633  69.9996  84.7530 0002947 266.7297  93.3525 14.98268656 68477,6950.383,96.111,574.296,570.199,0.0
55633.0,STARLINK-5498,PAYLOAD,2024-05-12 22:13:44,14.98290561,0.0002694,70.0011,83.0707,278.4394,81.646,-0.00041421,-5.027e-05,0.0,0 STARLINK-5498,1 55633U 23021F   24133.92621425 -.00005027  00000-0 -41421-3 0  9995,2 55633  70.0011  83.0707 0002694 278.4394  81.6460 14.98290561 68572,6950.315,96.11,574.052,570.307,0.0
55633.0,STARLINK-5498,PAYLOAD,2024-05-13 04:38:14,14.98329189,0.0002343,70.0012,82.3985,243.7173,116.3746,-5.4027e-05,-7.37e-06,0.0,0 STARLINK-5498,1 55633U 23021F   24134.19322430 -.00000737  00000-0 -54027-4 0  9999,2 55633  70.0012  82.3985 0002343 243.7173 116.3746 14.98329189 68318,6950.195,96.107,573.689,570.432,0.0
55633.0,STARLINK-5498,PAYLOAD,2024-05-13 06:14:22,14.98334031,0.0002709,69.9999,82.2291,261.4924,98.5928,-3.1899e-05,-4.74e-06,0.0,0 STARLINK-5498,1 55633U 23021F   24134.25998096 -.00000474  00000-0 -31899-4 0  9993,2 55633  69.9999  82.2291 0002709 261.4924  98.5928 14.98334031 68624,6950.18,96.107,573.928,570.163,0.0
55633.0,STARLINK-5498,PAYLOAD,2024-05-13 20:39:34,14.98294952,0.0002995,69.9996,80.7127,270.6455,89.4361,0.00081014,9.578e-05,0.0,0 STARLINK-5498,1 55633U 23021F   24134.86081583  .00009578  00000-0  81014-3 0  9999,2 55633  69.9996  80.7127 0002995 270.6455  89.4361 14.98294952 68717,6950.301,96.109,574.248,570.085,0.0
55633.0,STARLINK-5498,PAYLOAD,2024-05-14 04:40:14,14.98304447,0.0002989,69.9996,79.871,269.9795,90.1022,0.00083409,9.867e-05,0.0,0 STARLINK-5498,1 55633U 23021F   24135.19461724  .00009867  00000-0  83409-3 0  9996,2 55633  69.9996  79.8710 0002989 269.9795  90.1022 14.98304447 68461,6950.272,96.109,574.214,570.059,0.0
55633.0,STARLINK-5498,PAYLOAD,2024-05-14 06:16:22,14.98306472,0.0003004,69.9997,79.7027,270.6423,89.4392,0.00083693,9.901e-05,0.0,0 STARLINK-5498,1 55633U 23021F   24135.26137724  .00009901  00000-0  83693-3 0  9998,2 55633  69.9997  79.7027 0003004 270.6423  89.4392 14.98306472 68773,6950.266,96.109,574.219,570.043,0.0
55633.0,STARLINK-5498,PAYLOAD,2024-05-14 22:17:42,14.98353086,0.0002973,69.9998,78.0196,267.9364,92.1455,0.00019955,2.29e-05,0.0,0 STARLINK-5498,1 55633U 23021F   24135.92896891  .00002290  00000-0  19955-3 0  9992,2 55633  69.9998  78.0196 0002973 267.9364  92.1455 14.98353086 68875,6950.122,96.106,574.053,569.92,0.0
